name,types,address,place_id,longitude,latitude
Primavera Pub,bar,"283 Newington Avenue, Hartford",ChIJmSxbpTSt54kRZC53V9MeJWw,1010760.5405667109,824621.3063397895
Roma 56,bar,"898 New Britain Avenue, Hartford",ChIJITm0uC2t54kRS_qa_ry9t4s,1009847.0388262138,827381.4287229471
Zodiac Nightclub,bar,"145b Newfield Avenue, Hartford",ChIJ8w_XTmEP5okR2jsqBkZ36cI,1009673.3836631356,829181.2717815543
The Hangar at Goodwin Park,bar,"1130 Maple Avenue, Hartford",ChIJAQAAwOdS5okRq8F2Tkm9eSw,1016223.8387468958,825359.1900076792
Mirage Lounge,bar,"442 New Britain Avenue, Hartford",ChIJUdXb0ydT5okR_RuOGO-njOo,1014327.7430465248,830191.7683462048
Bars and Restaurants Business,bar,Hartford,ChIJ_____ytT5okR0MTPlLRvPhE,1012607.0330084822,831497.8261118275
Banana Brazil Grill (Steakhouse Restaurant Buffet) Hartford CT,bar,"341 New Park Avenue, Hartford",ChIJcwCQs9Os54kR3BF7amWGWqc,1009896.8159764742,832867.8897960191
Maple Ave Discount Liquors,bar,"871 Maple Avenue, Hartford",ChIJkUlpByBT5okRy9tBw2W3aIc,1017220.0219307446,828794.6908002315
Jessie's Cafe,bar,"1943 Broad Street, Hartford",ChIJOQoG6iFT5okRqLtdUVKSNlc,1017037.515744361,830106.0796238907
Carbone's,bar,"588 Franklin Avenue, Hartford",ChIJp6-oy-JS5okRL7yYlaAPIdc,1020695.4909919525,827639.0450965144
Matty D's Restaurant & Bar,bar,"236 South Street, Hartford",ChIJL4yU4OFS5okRxXNcvYPI5Kc,1018682.1876159476,828408.2360558854
Canicattinese Society Inc,bar,"500 Franklin Avenue, Hartford",ChIJ24IsMR1T5okRFOpr36XdbVw,1020520.7359766416,828655.6559685539
Sun Splash Bar & Grill,bar,"428 Franklin Avenue, Hartford",ChIJBySwuxxT5okRMtiBH5cxZ9c,1020401.4595796865,829572.3638421969
Trinity Tap Sports Bar,bar,"217 New Britain Avenue, Hartford",ChIJyc_zBSNT5okRg3XJp4NiM1I,1016465.1607330039,831679.9228743989
Lo Sano Restaurant & Bar,bar,"678 Maple Avenue, Hartford",ChIJLVHEhvRS5okRJDt6I6snTlI,1018247.2230351882,831056.9200373082
Baker's Cafe,bar,"85 New Britain Avenue, Hartford",ChIJ66Id4xdT5okRvfY26Uqbuok,1017500.5358029254,832452.4895238294
Majestic Lounge,bar,"451 Franklin Avenue, Hartford",ChIJ524SZoBT5okRCjC0XT_dJSY,1020319.3781215937,829237.2340799854
CASONA RESTAURANT,bar,"681 Wethersfield Avenue, Hartford",ChIJ08-onQNT5okR_BHEdIX9DpU,1021416.4442645888,829377.0747571344
Nolita Kitchen,bar,"901 Wethersfield Avenue, Hartford",ChIJbfeuUwFU5okRIceSbasfTkQ,1021761.1211430096,827168.0800634244
Arena Patio Restaurant,bar,"873 Wethersfield Avenue, Hartford",ChIJr4MSk_1S5okR1iFdEr9q7y0,1021779.5473846293,827461.9427988038
Mardi Gras Cafe,bar,"339 Franklin Avenue, Hartford",ChIJZzIZFuhT5okRlyXQeMnyTwY,1020115.6063673088,830644.5987762862
Chez Est,bar,"458 Wethersfield Avenue, Hartford",ChIJl2LLig9T5okRmf-9cS7O-FA,1021166.7558915392,831608.1720051187
The Hartford Trading,bar,"330 Ledyard Street, Hartford",ChIJbSE_HQRT5okRcJJaHB8gOHc,1022261.0338773886,829751.3956476153
bar,bar,"20 Lindbergh Drive, Hartford",ChIJNSi9v_dT5okRS_6KxlLmK9g,1027059.0314723598,831408.0232811262
One World Market,bar,"24 Francis Avenue, Hartford",ChIJ2UZs-zVT5okRSaoNW2S25Vo,1012501.5993108609,836611.3043021287
J's Crab Shack,bar,"2074 Park Street, Hartford",ChIJW9COtsus54kRJgIeQ9DiGL8,1009930.6091523579,836539.0243798577
Lounge,bar,"1651 Park Street, Hartford",ChIJz65GkDVT5okRV1meRiMm8Ko,1012018.3745416497,836578.8041470466
Kbarr,bar,"2071 Park Street, Hartford",ChIJy1_MJQit54kRxoYZhs8A3Gw,1009951.9985727336,836220.4072275404
Alpine Cafe,bar,"99 Franklin Avenue, Hartford",ChIJSaag1hNT5okRXz8g5DTTbqQ,1019726.5981431772,833636.2293633638
Wood-n-Tap- Hartford,bar,"99 Sisson Avenue, Hartford",ChIJVVUJAEtT5okRrF0nRDzl1pY,1011797.601332556,837855.8217224034
Hartford Flavor Company,bar,"30 Arbor Street # 107, Hartford",ChIJv0D3dElT5okRi8Z6WQZQEjs,1012940.391502767,837659.2110210862
Spigot Cafe,bar,"468 Prospect Avenue, Hartford",ChIJE-Li27Ws54kRL_mYIWW7Y2Q,1009497.6399490414,837992.3418872766
Beacon Cafe,bar,"1084 Capitol Avenue, Hartford",ChIJA8M7mLWs54kRLIeepFjGYPI,1010006.2507075861,837742.0311015068
The Capital Grille,bar,"44 Front Street, Hartford",ChIJAZAJcHpT5okRtflURcPQg8I,1021711.9690983072,838718.6120100315
Republic at The Linden,bar,"10 Capitol Avenue, Hartford",ChIJ2175zm9T5okRNYF1JhD1Y2Y,1020403.5621182027,838022.943542435
Polish National Home of Hartford,bar,"60 Charter Oak Avenue, Hartford",ChIJ0UoBu3FT5okRDOfTXPveiMw,1021422.4929733537,837408.4579501033
Vivo Seasonal Trattoria,bar,"200 Columbus Boulevard, Hartford",ChIJdUh3N3pT5okRP1-O5EiOzCw,1021944.846154274,839076.1531768303
Thomas Hooker Brewery at Colt,bar,"140 Huyshope Avenue, Hartford",ChIJJ3cS6XVT5okRtzUzaGTE1Ao,1023556.4779954064,835987.0237042697
Chocolate City Bar & Lounge,bar,"10 Maple Avenue, Hartford",ChIJ7XgPuptT5okRWo05VDq3iZY,1020059.8112692955,835886.0225528129
Tisane Euro-Asian Cafe,bar,"537 Farmington Avenue, Hartford",ChIJj-lD07Ks54kRspWk6P8FPfU,1010905.157606766,839871.077621588
The Half Door,bar,"270 Sisson Avenue, Hartford",ChIJVwv8Dk1T5okReQvOeIqFiXk,1011710.7205720934,839963.9839103274
Ducks on the Ave,bar,"572 Farmington Avenue, Hartford",ChIJ8zNY4bKs54kR5Mg94Zyl6a0,1010469.7191053424,840007.054599528
Piggy's Cafe,bar,"69 Hawthorn Street, Hartford",ChIJq_ALc0VT5okRYZyFY7yiAxk,1014514.3989499975,839094.9676307325
South Whitney Pizza,bar,"264 South Whitney Street, Hartford",ChIJ42lHO7Os54kR2z7hVzvbB-o,1010725.3480282093,839751.6922355132
Boricua Sports Lounge,bar,"633 Park Street, Hartford",ChIJ-yM0yEFT5okRKoCDe6jcrNI,1017058.0587756549,836907.2793265948
El 8 De Blanco,bar,"518 Park Street, Hartford",ChIJKUgacmpT5okReXg1gvu3CYs,1017627.3315219033,836967.7138094768
Max Downtown,bar,"185 Asylum Street, Hartford",ChIJ5ZXjk2RT5okRYnfbR2hC_bA,1020012.6188247681,840243.3034392047
Trumbull Kitchen,bar,"150 Trumbull Street, Hartford",ChIJiW5avmRT5okRsNYQAVx5xXI,1020340.3771505154,840106.4985325229
City Steam Brewery,bar,"942 Main Street, Hartford",ChIJf5Zto3xT5okRcRHEf8qo4b0,1021043.1414342639,840460.5422199153
Feng Chophouse,bar,"93 Asylum Street, Hartford",ChIJJbh5sGRT5okROkha3YkaJ3w,1020461.666847843,840170.1175621513
Russian Lady,bar,"191 Ann Uccello Street, Hartford",ChIJpWsmeGRT5okRrJTJMHevcmg,1019601.2304146673,840600.1379031186
Pigs Eye Pub,bar,"356 Asylum Street, Hartford",ChIJ_T0AG2RT5okR05icbtsRi7k,1019217.4581619296,840492.726177258
The Tavern Downtown,bar,"201 Ann Uccello Street, Hartford",ChIJublEiWNT5okR7U5CVygLww0,1019605.3313626028,840655.0192298313
Bin 228,bar,"228 Pearl Street, Hartford",ChIJxX-vWGRT5okR6nSNCCJocjo,1019772.477304122,840068.99282540055
Silk Lounge,bar,"960 Main Street #1, Hartford",ChIJLbEGwXxT5okRxk4klIZy1DY,1021496.5781154705,840719.271114869
Vaughan's Public House,bar,"59 Pratt Street, Hartford",ChIJF7xGVWNT5okRJh73ZlBRinA,1020640.0540346539,840420.9404835426
Sorella,bar,"901 Main Street, Hartford",ChIJxbIsIV7KtEwRF_IvRLGWMbM,1020922.7560718004,840426.5098729709
Little River Restoratives,bar,"405 Capitol Avenue, Hartford",ChIJ45gY4EJT5okR9Y1FfKWNDk8,1016654.1289466511,838969.0261491992
Comcast Coliseum Club,bar,"1 Civic Center Plaza, Hartford",ChIJYcPkZmNT5okRIgHaoie7Skg,1020187.1227548553,840637.5091518002
Rocking Horse Saloon,bar,"181 Ann Uccello Street, Hartford",ChIJL5TTeWRT5okRJr8x1Bf_ggA,1019617.9675279916,840550.1203675282
Element 315,bar,"315 Trumbull Street, Hartford",ChIJBcZoPmNT5okRd2vv-MOVmvo,1020280.9738226484,841009.5279429754
La Mirage Act II,bar,"978 Albany Avenue, Hartford",ChIJQXL7DqRU5okRllo_BbFgu7w,1015649.561021404,845358.7058642408
Seashore Jamaican Restaurant & Bar,bar,"330 Garden Street, Hartford",ChIJgR_XZp9U5okRauIe0HhpG_A,1017577.6783968555,844022.6581653217
Bar5,bar,"5 Constitution Plaza, Hartford",ChIJg09LKmVT5okRdivcqMLrOYo,1021893.3238580083,840089.9249565749
Ibpoe New Nutmeg charteroak,bar,"171 Bellevue Street, Hartford",ChIJRbukWYVU5okRnnIR2I1DIug,1020794.6351829079,845603.659171324
Krk Karaoke Kitchen,bar,"2750 Main Street, Hartford",ChIJfdydT_NU5okR7UY3KrgPEFY,1022020.7978071811,849120.5835815265
zxc,bar,"892 Main Street, Hartford",ChIJgyz5NFhT5okR8gDKgjCIAP0,1021027.092931576,840316.1909784881
V's Trattoria,bar,"280 Trumbull Street, Hartford",ChIJ0-zSSGNT5okRh80LgR6CQd8,1020553.3923012788,840787.0455027343
The Tavern at Keney Park,bar,"171 Windsor Avenue, Windsor",ChIJG7Ta8FRU5okROzLXGXoPqws,1024872.4740063326,854789.04638946
Jam Roc Restaurant And Lounge,bar,"3395 Main Street, Hartford",ChIJ26VdAVhU5okRZgVaWfAVVOY,1023671.02629473,851464.8232125217
Atwood Liquors,bar,"3460 Main Street, Hartford",ChIJX-hMClhU5okRA4Xl15jLqdc,1023963.1812477334,851696.8756557467
Painting with a Twist,bar,"45 Pratt Street, Hartford",ChIJdbKQqnxT5okRGdCsP7-yjhw,1020678.7934174762,840357.3874805815
NightSky Hookah Lounge,bar,"95 Pratt Street, Hartford",ChIJbzkCWGNT5okRUL-ZwnIeJM0,1020462.3774200865,840451.5040970678
Pratolana Mutual Benefit Society,night_club,"APT FL1, 611 Franklin Avenue, Hartford",ChIJeQjF1eJS5okRgIRqSqw-NbA,1020570.5058852274,827263.867034115
Lambada,night_club,"768 Maple Avenue, Hartford",ChIJ93YzQB9T5okRkgO3NwfoIM0,1017876.683193642,830021.4329193468
Las Garzas Night Club,night_club,"1786 Broad Street, Hartford",ChIJz-eduiJT5okRw1LjyDFevEk,1017212.7321338967,832088.4675792438
Majestic Lounge,night_club,"451 Franklin Avenue, Hartford",ChIJ524SZoBT5okRCjC0XT_dJSY,1020319.3781215937,829237.2340799854
CASONA RESTAURANT,night_club,"681 Wethersfield Avenue, Hartford",ChIJ08-onQNT5okR_BHEdIX9DpU,1021416.4442645888,829377.0747571344
Nolita Kitchen,night_club,"901 Wethersfield Avenue, Hartford",ChIJbfeuUwFU5okRIceSbasfTkQ,1021761.1211430096,827168.0800634244
Chez Est,night_club,"458 Wethersfield Avenue, Hartford",ChIJl2LLig9T5okRmf-9cS7O-FA,1021166.7558915392,831608.1720051187
hartfordTrading Co,night_club,"330 Ledyard Street, Hartford",ChIJoxPnu99T5okR6rV9TDuY_Uc,1022280.2304414408,829798.8576931157
The Pearl Night Club,night_club,"151 Meadow Street, Hartford",ChIJ31t0VGZT5okR7ptxe3hzirQ,1022873.1942418474,831935.0226793367
Alpine Cafe,night_club,"99 Franklin Avenue, Hartford",ChIJSaag1hNT5okRXz8g5DTTbqQ,1019726.5981431772,833636.2293633638
Leisure Time Club,night_club,"355 Zion Street, Hartford",ChIJUQwJ3DtT5okRICVJWELdA70,1015254.4771299858,834370.4446840645
Chocolate City Bar & Lounge,night_club,"10 Maple Avenue, Hartford",ChIJ7XgPuptT5okRWo05VDq3iZY,1020059.8112692955,835886.0225528129
Comcast Coliseum Club,night_club,"1 Civic Center Plaza, Hartford",ChIJYcPkZmNT5okRIgHaoie7Skg,1020187.1227548553,840637.5091518002
NightSky Hookah Lounge,night_club,"95 Pratt Street, Hartford",ChIJbzkCWGNT5okRUL-ZwnIeJM0,1020462.3774200865,840451.5040970678
Infinity theater hartford ct,night_club,"942 Main Street, Hartford",ChIJL_k7kPVT5okRt4lFtZFUozU,1021035.0203425566,840512.2062082823
North End Cricket & Domino Association Inc.,night_club,"2280 Main Street, Hartford",ChIJ51-VHY5U5okRvoVtPCwJluM,1020769.064931238,847012.3575219113
The Society,night_club,"806 Windsor Street, Hartford",ChIJQwc8mIxU5okRMtL0vyHMIwM,1022068.6825543749,848365.597271279
Mynx Cabaret Hartford,night_club,"145 West Service Road, Hartford",ChIJdbAOD15U5okRPJtn-ystY84,1025262.0395037989,848691.7694569513
Yankee Liquors,liquor_store,"35 William Shorty Campbell Street, Hartford",ChIJdXCHVdWs54kRLNq96122AAk,1010754.5515477373,830929.9861732908
Atwood Package Store,liquor_store,"886 New Britain Avenue, Hartford",ChIJkZ64ri2t54kR9Q_YkmN_uSo,1010051.5129492177,827501.1084073125
E&R Liquor Store,liquor_store,"275 Newington Avenue, Hartford",ChIJZdm_EtOt54kRsWB8r88VsfY,1010751.3803002909,824594.7744781172
High Spirit Wine & Liquor LLC,liquor_store,"237 White Street, Hartford",ChIJM627y9lS5okRArdDywKMVa8,1014477.0643087751,828315.5302139347
NBA Discount Liquors,liquor_store,"438 New Britain Avenue, Hartford",ChIJP-5E0idT5okRbLAGZou4qrM,1014305.930626479,830201.5208267103
Maple Ave Discount Liquors,liquor_store,"871 Maple Avenue, Hartford",ChIJkUlpByBT5okRy9tBw2W3aIc,1017220.0219307446,828794.6908002315
A & A Package Store,liquor_store,"244 South Street, Hartford",ChIJ1_8L3eFS5okR7Nb49sUnnvE,1018579.3619606674,828349.0504106912
Trinity Package Store,liquor_store,"219 New Britain Avenue, Hartford",ChIJhfhSDyNT5okRYrPN1osp3Cw,1016468.5403432932,831647.1663047369
Bih Beer Importers LLC,liquor_store,"231 Adelaide Street, Hartford",ChIJkZP1HxlT5okR8W-QcEFuo0A,1018239.3585556624,830745.2852089582
H & L Package Store,liquor_store,"219 Zion Street, Hartford",ChIJBZymOztT5okRW-X6VFF_AKM,1015225.4705761663,832975.8557422473
D'Aprile Package Store,liquor_store,"288 Franklin Avenue, Hartford",ChIJs40SlBpT5okRptqSXLifO5M,1020191.6110142176,831349.1444688725
Jimmie's Package Store,liquor_store,"473 Franklin Avenue, Hartford",ChIJG_DlIB1T5okR5su4xJbsrxc,1020341.6707963599,828991.0333332191
Franklin Package Store,liquor_store,"402 Franklin Avenue, Hartford",ChIJKbiboBxT5okRrMxX64b2Nwc,1020379.6835068287,829883.9006655752
Club Discount Liquors,liquor_store,"554 Wethersfield Avenue, Hartford",ChIJk8jOBwVT5okRjuXdYEbjx5o,1021333.7363066464,830715.1589700796
Bobby?s Wine & Liquor,liquor_store,"33 New Britain Avenue, Hartford",ChIJCRmSLLRT5okRqLAgmkdZN6E,1017937.8297045323,832733.1822580058
Pope Park Liquor Store,liquor_store,"16 Hillside Avenue, Hartford",ChIJv3A83DlT5okRRcCOX8WJAlg,1014396.3299367268,835240.4052866299
South End Liquors,liquor_store,"196 Maple Avenue, Hartford",ChIJoZycDhNT5okR33T9_TUr8GU,1019589.9020163382,834566.958873211
Morris Package Store,liquor_store,"285 Park Street, Hartford",ChIJ_0nO7GtT5okRZlzvlVSei_k,1018812.8981333546,836791.2064446162
Iberia Wines & Spirits LLC,liquor_store,"1200 Park Street # 9, Hartford",ChIJdRboWhdU5okR-9c8WUKMAgQ,1014220.4863795053,837247.453973575
Wild Vines,liquor_store,"1200 Park Street D, Hartford",ChIJDwGEt0dT5okRCRgFTGAOKl4,1014215.8201223861,837248.5807818823
Kings Package Store,liquor_store,"1980 Park Street, Hartford",ChIJY2QHHcus54kRqc99ODBDGXM,1010443.3686098331,836366.8146456202
New Park Package Store,liquor_store,"2 New Park Avenue, Hartford",ChIJ9wXpmzVT5okRYQ1uheuirJA,1011972.9895300601,836545.3661146812
J & L Liquors,liquor_store,"858 Park Street, Hartford",ChIJEd10KUFT5okR0SQB-U9nxZ4,1015954.5638659364,837030.4736889045
Park Street Package Store,liquor_store,"816 Broad Street, Hartford",ChIJXZV83EFT5okRKa6PN2nas8k,1017218.164556062,836981.3677443217
Capital Spirits Charter Oak,liquor_store,"29 Charter Oak Avenue, Hartford",ChIJFYFUJ25T5okRxVbQkIPJDLI,1020740.1542883473,837403.3293304916
Farmington Ave Package Store,liquor_store,"500 Farmington Avenue, Hartford",ChIJM6DtFE1T5okReirETxYpUM0,1011355.3328313478,840131.8690039074
Welcome Package Store,liquor_store,"1032 Capitol Avenue, Hartford",ChIJlY8xFLWs54kRVBzYVBHXd5M,1010518.3380771192,837795.783544153
Roberts House of Liquor Store,liquor_store,"862 Park Street, Hartford",ChIJTeX31UBT5okREARXq_eLTjY,1015940.7764880841,837043.473238523
Capital Spirits,liquor_store,"73 Pratt Street, Hartford",ChIJl00GVmNT5okRIQPyYw4tA5c,1020564.8757436505,840413.4411185309
Spiritus Wines,liquor_store,"220 Asylum Street, Hartford",ChIJ89jcYmRT5okRLj1AhxpE2sU,1019875.8397678453,840397.9827663676
City Cellars,liquor_store,"304 Farmington Avenue, Hartford",ChIJcfKma1BT5okRNR5MZj-sLcI,1013861.6704271199,840546.9436889048
Bashner's Package Store,liquor_store,"1293 Main Street, Hartford",ChIJ75Uqep1U5okRwUQbeLr1whQ,1020149.9968923493,842070.7173010611
Woodland Package Store,liquor_store,"354 Woodland Street, Hartford",ChIJV4qSKKZU5okRARVQlF0aCtc,1014377.3819566483,844562.89224948
French's Liquor Store,liquor_store,"580 Albany Avenue, Hartford",ChIJI7QG5KFU5okRAPNbxHb1wuc,1017409.9245032638,844361.7499398363
Oakland Liquor Store LLC,liquor_store,"1081 Albany Avenue, Hartford",ChIJ96gHNqRU5okRDgk6vgCm1DY,1015100.012539117,845429.2588926402
Congressman Package Store,liquor_store,"1988 Main Street, Hartford",ChIJb4AWtsVV5okRk1lRpAbCCrg,1020243.2308618431,845537.0775945552
Capen Package Store,liquor_store,"212 Capen Street, Hartford",ChIJa60F_JZU5okRbo71010si4w,1018371.2540390155,847171.028888433
Blue's Package Store,liquor_store,"139 Barbour Street, Hartford",ChIJKV9UvJNU5okRlKFtmKT9GYQ,1019480.2210033905,848348.6301663205
Panchos Discount Liquors LLC,liquor_store,"292 Barbour Street, Hartford",ChIJmS383-xU5okRCicRjF4lS64,1019882.7981202169,849771.8649817044
Liquor outlets,liquor_store,"2790 Main Street, Hartford",ChIJXU6RNiRV5okRmfKpt1Zo284,1022056.6851338344,849091.9390740716
Modern Liquor Store LLC,liquor_store,"654 Blue Hills Avenue, Hartford",ChIJWTOj09pU5okRnHSINiIxcXY,1014908.8089774692,854278.3106174353
Mobil,gas_station,"888 New Britain Avenue, Hartford",ChIJ92Lury2t54kR7WnKqsRl_d8,1009861.3651213575,827521.1790151377
Valero,gas_station,"923 Maple Avenue, Hartford",ChIJNSBWv99S5okRQ8KLDp8GLdg,1016976.752924086,828224.2041350141
FOODLAND #4,gas_station,"831 Maple Avenue, Hartford",ChIJRxV7iR9T5okR2lutTnYfIlc,1017394.9125381443,829250.2731651579
Gulf Oil,gas_station,"850 Maple Avenue, Hartford",ChIJ49OnHSBT5okRT4yfy2vTYuY,1017502.4260779783,829096.3240369585
Getty Petroleum Marketing Inc,gas_station,"1919 Broad Street, Hartford",ChIJDwXn8yFT5okRxMHTf-Qtgfw,1017025.5738872271,830429.4330474592
Sam's Stores,gas_station,"145 New Britain Avenue, Hartford",ChIJg39ryCJT5okRls3NxTp1RX4,1017096.8625583677,832082.9538312284
Valero Gas station,gas_station,"867 Wethersfield Avenue, Hartford",ChIJE-r6kv1S5okRhRW16YoFcuA,1021776.5674746379,827555.7345659861
Mobil,gas_station,"634 Wethersfield Avenue, Hartford",ChIJhxH-hwRT5okRA1a4Lq5JSto,1021404.447058419,829424.2162566059
Sunoco Gas Station,gas_station,"675 Wethersfield Avenue, Hartford",ChIJ1dy4ggNT5okRdNyc6tLTnY8,1021388.0594887249,829407.0020627807
City Gas Station,gas_station,"10 White Street, Hartford",ChIJf7pPGiBT5okR2cGvaxo-Cq0,1017329.0410225358,829156.102112981
Ravi,gas_station,"848 Maple Avenue, Hartford",ChIJiaIj9R9T5okRr-KUtHTwx-Y,1017490.3781580401,829148.6054078715
Shell,gas_station,"131 Brainard Road, Hartford",ChIJJ2ouhalT5okR9N9I8z1OqeA,1024531.8832054762,829244.3733700305
Citgo,gas_station,"84 Airport Road, Hartford",ChIJMeikugZT5okR0W-fNcgh1Tk,1022503.2927229877,829885.794925457
Citgo,gas_station,"825 Maple Avenue, Hartford",ChIJR96miR9T5okRFQUgugLgnxs,1017495.6853691121,829316.0112226607
Mercury,gas_station,"Brainard Rd and, Airport Road, Hartford",ChIJh_5Ck2FT5okRcgJMFrVoPwQ,1024781.9256035682,829262.8179690564
Mobil,gas_station,"110 Brainard Road, Hartford",ChIJwdlldalT5okRCpaabHvKFSI,1024720.2813797434,829408.1459006544
Clean Energy,gas_station,United States,ChIJd_ImRqZT5okREIXnsjdlNsI,1024872.7335389296,831123.1749893769
Shell,gas_station,"1620 Park Street, Hartford",ChIJgycbjTVT5okRcoURzdCNVrg,1012079.4139009417,836732.4274739656
Mobil,gas_station,"234 Washington Street, Hartford",ChIJT76XI2tT5okRBYvqq2qPiAk,1018448.8686978958,835882.1562539518
Citgo,gas_station,"106 Sisson Avenue, Hartford",ChIJ5-Jwr0tT5okRWk94F6sS2p8,1011939.8102500122,838001.687535999
Ravi,gas_station,"1783 Broad Street, Hartford",ChIJG-jauSJT5okRSdfU9cPr7MU,1017065.0610861478,832057.0588869428
Select Food Mart,gas_station,"125 New Britain Avenue, Hartford",ChIJcccEsyJT5okRi_jag49HwHw,1017194.9509398236,832221.8224862997
"Gas,cars",gas_station,"101 New Britain Avenue #93, Hartford",ChIJYxTBVz1T5okRzr7mXysPldk,1017383.4342531594,832343.7773044722
Shell,gas_station,"335 Capitol Avenue, Hartford",ChIJa6-3vUJT5okRjaJc6DElyTk,1017162.5848156831,838969.6823409203
Gulf gas station,gas_station,"611 Maple Avenue, Hartford",ChIJF6mJzRlT5okRpJ359LR4pLE,1018388.1300341905,831754.0038763924
SELECT FOOD MART,gas_station,"181 Franklin Avenue, Hartford",ChIJFVksVxBT5okRm1hEfeY88O4,1019843.2633551582,832556.7390155895
Hartford Mart,gas_station,"519 Farmington Avenue, Hartford",ChIJ-1-QME1T5okRydM16b1UchE,1011381.4369211295,839969.7622699097
Ravi Petroleum Gulf,gas_station,"472 Farmington Avenue, Hartford",ChIJw-JjdE1T5okRugE40hGO1Sw,1011811.0602393539,840180.9947404449
Paul's Depot Garage,gas_station,"1115 Capitol Avenue, Hartford",ChIJSV8C7bWs54kRPRO7JNY96lA,1009718.3232350616,837554.79414572
D & B Gas Station,gas_station,"Broad Street, Hartford",ChIJWRTZMD5T5okRHTmw0PXGlf4,1017159.2407289324,834792.4464092324
Citgo,gas_station,"182 Washington Street, Hartford",ChIJmWwXqGtT5okRSLMPkstDW_M,1018489.3483226495,836524.141050998
Capitol Gulf,gas_station,"1127 Capitol Avenue, Hartford",ChIJC6E37rWs54kRKv_1ozTq78g,1009560.8095189105,837566.6454385498
Ravi Petro,gas_station,"466 Farmington Avenue, Hartford",ChIJsZlpnU1T5okRjX5t6YRyg94,1011813.5802131536,840215.1762551568
Noble,gas_station,"131 Buckingham Street, Hartford",ChIJ57UivKZT5okRUY5Aiv9szyU,1019704.4895659707,837690.8956424191
Citgo,gas_station,"410 Market Street, Hartford",ChIJ_Ss1WoJU5okRrv-oxS4I8GQ,1021654.5236676345,842685.7301669313
Shell,gas_station,"949 Albany Avenue, Hartford",ChIJJyhXBKRU5okR6n1xP_vDZA4,1015679.2894652139,845114.1792705989
Exxon,gas_station,"351 Woodland Street, Hartford",ChIJD9DPgqhU5okRV8LiPaUCFNY,1014175.3908524552,844588.1318684155
Mobil,gas_station,"605 Albany Avenue, Hartford",ChIJUQVE76FU5okRm1JiK79GNiU,1017182.2614170334,844275.3303200442
Sunoco Gas Station,gas_station,"550 Albany Avenue, Hartford",ChIJhw1DX59U5okRlaB8zid51kU,1017494.2952419878,844279.4588977287
Citgo - Albany Food Mart,gas_station,"215 Albany Avenue, Hartford",ChIJ7wdpgZ5U5okRuT2dHnIEOgk,1018989.1034753438,843427.5648094292
Gulf,gas_station,"1510 Albany Avenue, Hartford",ChIJzU26Z65U5okRQ25wU9xSQdo,1012967.0821717243,846571.5742652699
Express Mart,gas_station,"212 Capen Street, Hartford",ChIJa60F_JZU5okRKzX6lYNzZ9s,1018371.2540390155,847171.028888433
Mobil,gas_station,"125 Weston Street, Hartford",ChIJ8_PHAWBU5okRyrxF08bVW3U,1023908.5480491399,848461.2972634113
Golden Nozzle Car Wash,gas_station,"140 Weston Street, Hartford",ChIJtY_85F9U5okRdZIQnlphMUY,1024345.9725466458,848623.8290098482
FL Roberts,gas_station,"173-141 Weston Street, Hartford",ChIJzb1gDUxV5okRZQW1k-dz85o,1024129.7862749579,848606.5528603891
Pride,gas_station,"10 Jennings Road, Hartford",ChIJWQ9ZQ2dU5okRdhp2EgzfQWU,1025769.1027569104,847704.3284389245
Pride Hartford Travel Center,gas_station,"165 Leibert Road, Hartford",ChIJGbysMGdU5okRuYQyU0MGNtY,1025808.1401496619,847743.9446779744
Noble,gas_station,"3250 Main Street, Hartford",ChIJq2NUF_ZU5okRay5FbSQ6OJQ,1023719.059225867,850691.8378764801
Petro Pantry,gas_station,"618 Blue Hills Avenue, Hartford",ChIJ-Wa9J8VU5okRNWPsPjJSZik,1014984.8312501498,853620.8382040053
Walmart Pharmacy,pharmacy,"495 Flatbush Avenue, Hartford",ChIJl7FRY9Ws54kRMtiQFZJCEFY,1010263.115361366,830616.8631521298
Community Care Pharmacy,pharmacy,"408 New Britain Avenue, Hartford",ChIJ6zqLOCZT5okRl1qm4Kus-G4,1014626.4454016271,830429.9729859147
CVS Pharmacy,pharmacy,"908 Maple Avenue, Hartford",ChIJ3Qxr3d9S5okR7cDN76NbK18,1017281.1768931106,828324.8881502292
Health Care Pharmacy,pharmacy,"740 Maple Avenue, Hartford",ChIJX_P0Mx9T5okRukOfQ9V8hkk,1018019.0625850635,830314.1485710883
CVS Pharmacy,pharmacy,"690 Wethersfield Avenue, Hartford",ChIJAZARjgNT5okRgaMbBFWi-LU,1021758.33262218,829421.3698729994
S House,pharmacy,"77 Whitmore Street, Hartford",ChIJzzCbrBBT5okRbI54qSO6Lcg,1019097.2035218922,832041.0532732864
Stop & Shop Pharmacy,pharmacy,"150 New Park Avenue, Hartford",ChIJq96AuSVT5okRL8AbbURPFJE,1011268.5358304118,834801.503390718
Arrow Pharmacy & Nutrition Center,pharmacy,"85 Seymour Street # 1, Hartford",ChIJZ6_-S2tT5okRlCm3aVze51g,1018760.9257635254,835653.5630614074
Suburban Jobst Healthcare,pharmacy,"100 Retreat Avenue STE 105, Hartford",ChIJeVFaZxNT5okRKnQ684-dLG0,1019464.2949853125,835133.8515832702
"Fei Wang, MSC",pharmacy,"79 Retreat Avenue, Hartford",ChIJXU4dSRNT5okRbHyrvJO_sxc,1019451.1339250553,835376.2355338993
Walgreens Pharmacy,pharmacy,"100 Retreat Avenue #102b, Hartford",ChIJl4EIOBNT5okR9yVEWbitW0w,1019471.0307526529,835138.7035829185
Hartford Pharmacy,pharmacy,"469 Park Street, Hartford",ChIJK-gCampT5okRIn4EbHjaTdw,1017916.315914253,836875.8856492618
Walgreens Pharmacy,pharmacy,"161 Washington Street, Hartford",ChIJaQHNsmtT5okRwf3Kj1uwvXw,1018254.7104375323,836754.7290642138
Hartford Pharmacy II,pharmacy,"57 Park Street, Hartford",ChIJJzyCym1T5okRF8Eei3QCrUA,1019905.8636482514,836599.2664635787
Drive-Thru Pharmacy,pharmacy,United States,ChIJn7v86GtT5okRb6VlSfDMkQc,1018706.4511798922,837009.721871494
CVS Pharmacy,pharmacy,"150 Washington Street, Hartford",ChIJqT616WtT5okRQ8BpwwPKxII,1018679.9277070607,837013.5998609508
Genoa Healthcare,pharmacy,"45 Wadsworth Street, Hartford",ChIJ49v7B0RT5okRJ2TTXhyNukg,1019093.5986385455,837301.0375436472
CVS Pharmacy,pharmacy,"566 Farmington Avenue, Hartford",ChIJv8h-5rKs54kRvnlAHb5xFHA,1010528.0444477589,840009.7042191845
Arrow Pharmacy,pharmacy,"500 Farmington Avenue, Hartford",ChIJo2l3FU1T5okRqg5wa-tMmWQ,1011337.3277759469,840131.3866243204
Genoa Healthcare,pharmacy,"43 Woodland Street, Hartford",ChIJWR_BVZdT5okR5jO7A2CFLjc,1012873.3606691264,841546.8667914085
CVS Pharmacy,pharmacy,"750 Main Street, Hartford",ChIJh95M7nhT5okRqitYEQV-7pA,1020994.434770978,839646.0393652829
University of Saint Joseph. School of Pharmacy,pharmacy,"229 Trumbull Street, Hartford",ChIJFzDMYGNT5okRgGekHSn2bVk,1020247.317775019,840556.5557253566
"Hai T. Nguyen, BA",pharmacy,"999 Asylum Avenue, Hartford",ChIJT3eJVldT5okRNX1xQmOlxhg,1014188.9889469056,841708.7576411321
Arrow Pharmacy,pharmacy,"100 Woodland Street, Hartford",ChIJP8ZgQqhU5okR0dQszpMs8N8,1013973.1096776986,842710.8621333294
Walgreens Pharmacy,pharmacy,"1291 Albany Avenue, Hartford",ChIJZxJChdVV5okROYD8Sh1wMVg,1014089.1953514434,845417.1909028081
Kure Rx,pharmacy,"1156 Albany Avenue, Hartford",ChIJS7dhsKVU5okRctFxQAoJ8KE,1014830.0818926105,845722.827409745
Walgreens,pharmacy,"500 Albany Avenue, Hartford",ChIJZc0NnsdV5okRdfcnrWfzK6g,1017809.9076303779,844312.381600776
Curaleaf Hartford,pharmacy,"92 Weston Street, Hartford",ChIJaQ_Tn4pU5okRsIJWbH5Dhj8,1023845.3648217196,847298.4422241003
Arrow,pharmacy,"92 Weston Street suite 16, Hartford",ChIJDd9B2GFU5okR3b1V6Zx5GXY,1023796.6484792881,847441.1272595475
CVS Pharmacy,pharmacy,"479 Blue Hills Avenue, Hartford",ChIJCcRFacZU5okRIYHPFz4VP0M,1014737.3220865016,851827.6608465157
Genoa Healthcare,pharmacy,"56 Coventry Street suite b, Hartford",ChIJx7vnKL5V5okRIa1k8DU_Vxo,1016462.5798078411,851427.5645662806
Arrow Prescription Center,pharmacy,"131 Coventry Street # 2, Hartford",ChIJt9civMNU5okRjRu6xS4YxiE,1016061.8611307567,852297.2152742692
Main Street Pharmacy,pharmacy,"2550 Main Street, Hartford",ChIJn9EYSalV5okR5OLEI-SuE2g,1021341.7017459457,848107.5175551294
Subway,restaurant,"497 Flatbush Avenue, Hartford",ChIJr8O9-dSs54kRzDZKay4KTAE,1010168.8857551762,830469.8627702544
First & Last Tavern,restaurant,"939 Maple Avenue, Hartford",ChIJPbLAxd9S5okRhhOnr5uJh0s,1016957.8993435376,828138.6312909299
Popeyes Louisiana Kitchen,restaurant,"523 Flatbush Avenue, Hartford",ChIJN-FeVtSs54kRBD7Pi2BVoQY,1010038.4655954726,831092.4083002732
Subway,restaurant,"860 Maple Avenue, Hartford",ChIJ0SRl-B9T5okRJjapBPS-SlE,1017445.9891275644,828903.664417405
Taco Bell,restaurant,"485 Flatbush Avenue, Hartford",ChIJwVqy6NSs54kR25f9Ir9iWfo,1010503.4278276799,831210.2732446111
Piolin Restaurant,restaurant,"417 New Britain Avenue, Hartford",ChIJETDSNSZT5okRlft8Z4Pb-Ho,1014592.1135281475,830207.1256135651
Coyote Flaco Mexican Restaurant,restaurant,"635 New Britain Avenue, Hartford",ChIJZ5S3x9ZS5okRz-PFQ7tMiZc,1013073.1706949339,828029.6827449428
Denny's,restaurant,"539 Flatbush Avenue, Hartford",ChIJV4wFUtSs54kRWOR3lbHdrHA,1009917.8189541473,831073.9918562518
Carbone's,restaurant,"588 Franklin Avenue, Hartford",ChIJp6-oy-JS5okRL7yYlaAPIdc,1020695.4909919525,827639.0450965144
Fung Chinese Restaurant,restaurant,"891 Maple Avenue, Hartford",ChIJSWHU8N9S5okR2FECu7iI3kY,1017172.0418054663,828641.3195391803
CASONA RESTAURANT,restaurant,"681 Wethersfield Avenue, Hartford",ChIJ08-onQNT5okR_BHEdIX9DpU,1021416.4442645888,829377.0747571344
Millennium Italian Society,restaurant,"809 Wethersfield Avenue, Hartford",ChIJpWzobgJT5okR48zrOf19eLw,1021691.2910920288,828096.3046086146
La Fonda Bar Restaurante,restaurant,"269 Franklin Avenue, Hartford",ChIJz_PXmhpT5okRnkCGPSjw3NU,1019990.716008718,831517.8694586096
La Rosa's Marketplace,restaurant,"94 Brown Street, Hartford",ChIJj8aS5RxT5okR-RN7y-7hfN8,1020148.172415755,829358.5392080018
Matty D's Restaurant & Bar,restaurant,"236 South Street, Hartford",ChIJL4yU4OFS5okRxXNcvYPI5Kc,1018682.1876159476,828408.2360558854
Great Wall Restaurant,restaurant,"764 Maple Avenue, Hartford",ChIJZS0PPx9T5okRG463HVtRg7E,1017887.3211896647,830029.4211836873
U.S.S. Chowder Pot IV,restaurant,"165 Brainard Road, Hartford",ChIJ_9ztMqpT5okRiDBNNehPxK0,1024234.2794904804,828683.5572249285
Subway,restaurant,"110 Brainard Road, Hartford",ChIJJ2sU3QZT5okRTzqZsgUEY0w,1024823.3531185248,829421.9917617806
McDonald's,restaurant,"76 Brainard Road, Hartford",ChIJi8CkrqlT5okRcHCHPahW2J0,1024739.3262746967,829907.9667891808
Canicattinese Society Inc,restaurant,"500 Franklin Avenue, Hartford",ChIJ24IsMR1T5okRFOpr36XdbVw,1020520.7359766416,828655.6559685539
Nolita Kitchen,restaurant,"901 Wethersfield Avenue, Hartford",ChIJbfeuUwFU5okRIceSbasfTkQ,1021761.1211430096,827168.0800634244
The Rockin Chicken,restaurant,"476 Franklin Avenue, Hartford",ChIJ_ZgKJx1T5okReexDG90nqNc,1020499.7854892021,828988.0364612914
Shell,restaurant,"131 Brainard Road, Hartford",ChIJJ2ouhalT5okR9N9I8z1OqeA,1024531.8832054762,829244.3733700305
Sun Splash Bar & Grill,restaurant,"428 Franklin Avenue, Hartford",ChIJBySwuxxT5okRMtiBH5cxZ9c,1020401.4595796865,829572.3638421969
Fat Franks Pizza,restaurant,"481 Wethersfield Avenue, Hartford",ChIJnVj9ZQVT5okRuRcYGeuwrQg,1021017.323962154,831350.3031842966
Wendy's,restaurant,"306 Prospect Avenue, Hartford",ChIJr3bD6Mus54kRqfI9lkbBl5U,1009677.4003170406,835886.471589898
George's Pizza Restaurant,restaurant,"2027 Park Street, Hartford",ChIJj5Koqcus54kRmtp6amHoJRA,1010156.4233054561,836148.8545364776
Au Bon Pain,restaurant,"80 Seymour Street, Hartford",ChIJGf-GsWxT5okRUp6zZUjyUwk,1019107.7796144998,835592.2954606132
J Restaurant | Bar,restaurant,"297 Washington Street, Hartford",ChIJaRDx4BRT5okRck5g3IUB20I,1018232.7203635394,835129.8790453398
McDonald's,restaurant,"172 Washington Street, Hartford",ChIJt5OFr2tT5okRoxtLtT4BzCU,1018572.3886435945,836647.0800403525
Hartford Restaurant Group,restaurant,"30-R, Bartholomew Avenue, Hartford",ChIJt1Qfq0tT5okRBfYpXARUaD8,1013032.297205177,836497.6456286745
Ipanema Cafe,restaurant,"1819 Park Street, Hartford",ChIJW7YIMDVT5okRqu3i6e9c21s,1011200.7613414145,836396.751089311
One World Market,restaurant,"24 Francis Avenue, Hartford",ChIJ2UZs-zVT5okRSaoNW2S25Vo,1012501.5993108609,836611.3043021287
Papa John's Pizza,restaurant,"1180 Broad Street, Hartford",ChIJQacuXxNT5okRKdV3XJ3B8R0,1017248.7248524047,835188.6806325348
China Garden,restaurant,"1 New Britain Avenue, Hartford",ChIJb8-pVRZT5okR_tetqqnwlpQ,1018155.6359257456,832897.1072874697
Arch Street Tavern,restaurant,"85 Arch Street, Hartford",ChIJ3QnGhXBT5okR7Zpf1ypHyBU,1021587.9176106647,838299.8085753366
The Capital Grille,restaurant,"44 Front Street, Hartford",ChIJAZAJcHpT5okRtflURcPQg8I,1021711.9690983072,838718.6120100315
Peppercorn's Grill,restaurant,"357 Main Street, Hartford",ChIJqxuGMW5T5okR9qMm4rcyLYQ,1020406.4902139199,837792.1385753768
Subway,restaurant,"493 Main Street, Hartford",ChIJbyd0429T5okRXIe0-kx1tao,1020511.711829061,838431.5966351734
Vivo Seasonal Trattoria,restaurant,"200 Columbus Boulevard, Hartford",ChIJdUh3N3pT5okRP1-O5EiOzCw,1021944.846154274,839076.1531768303
Market Restaurant,restaurant,"101 Reserve Road, Hartford",ChIJz7uXKqJT5okRPM_XpkJg13w,1025397.3995716552,832726.1167217224
Tisane Euro-Asian Cafe,restaurant,"537 Farmington Avenue, Hartford",ChIJj-lD07Ks54kRspWk6P8FPfU,1010905.157606766,839871.077621588
The Half Door,restaurant,"270 Sisson Avenue, Hartford",ChIJVwv8Dk1T5okReQvOeIqFiXk,1011710.7205720934,839963.9839103274
Ichiban Japanese & Korean,restaurant,"530 Farmington Avenue, Hartford",ChIJBaFIMk1T5okR2Z0rgKryYM4,1010964.5683916446,840062.7769220421
Monte Alban Restaurant,restaurant,"531 Farmington Avenue, Hartford",ChIJqUpAMk1T5okR2M3KNYDpMvo,1010968.9568393967,839894.97508885
Tangiers International LLC,restaurant,"550 Farmington Avenue A, Hartford",ChIJuW6DaLGs54kRbQ69SGKUTkQ,1010796.5145109715,840131.1691724424
Brazilian Gula grill & catering,restaurant,"1400 Park Street #17, Hartford",ChIJ1c_cdnT45okR1ddwN_8z6Hs,1013146.6976334968,837192.2809303349
Subway,restaurant,"1240 Park Street, Hartford",ChIJlXAtxkdT5okRZEfU4YkO_9Y,1013908.2187171805,837111.0206679027
Thai Farms Restaurant,restaurant,"104 Jefferson Street, Hartford",ChIJM-XLY2tT5okRPLEFccTq-lU,1019000.7890126074,836035.1663604786
Max Downtown,restaurant,"185 Asylum Street, Hartford",ChIJ5ZXjk2RT5okRYnfbR2hC_bA,1020012.6188247681,840243.3034392047
Trumbull Kitchen,restaurant,"150 Trumbull Street, Hartford",ChIJiW5avmRT5okRsNYQAVx5xXI,1020340.3771505154,840106.4985325229
City Steam Brewery,restaurant,"942 Main Street, Hartford",ChIJf5Zto3xT5okRcRHEf8qo4b0,1021043.1414342639,840460.5422199153
Black-Eyed Sally's Southern Kitchen & Bar,restaurant,"350 Asylum Street, Hartford",ChIJ392KGmRT5okRJixT0bvkqTM,1019192.464439288,840498.7912141836
Agave Grill,restaurant,"100 Allyn Street #1418, Hartford",ChIJublEiWNT5okRCAQtQmd-IoM,1019642.9577406384,840744.7646546195
Starbucks,restaurant,"185 Asylum Street #100, Hartford",ChIJbW6s8mRT5okRR-GJkSaej1c,1020098.2486925027,840248.0041076761
Feng Chophouse,restaurant,"93 Asylum Street, Hartford",ChIJJbh5sGRT5okROkha3YkaJ3w,1020461.666847843,840170.1175621513
Subway,restaurant,"65 Asylum Street, Hartford",ChIJ7QAHs2RT5okRIQT4yeWrBQ0,1020583.3140488693,840104.7416675573
Salute,restaurant,"100 Trumbull Street, Hartford",ChIJtVyy42RT5okRU1lFa7ZzYk0,1020160.2032978433,839641.5214752117
Subway,restaurant,"1 Union Place, Hartford",ChIJ8SfuuGZT5okRGRoxZ07gKrg,1018673.1153905953,840860.2185304312
Domino's Pizza,restaurant,"312 Farmington Avenue, Hartford",ChIJ5Wo3QFBT5okRvLgvlpVrSbA,1013794.1582940979,840582.4326105597
subway,restaurant,"471 Farmington Avenue, Hartford",ChIJOfIeOVBT5okRYAPFaduOf74,1011724.7537022509,839997.2601452562
The Russell Restaurant,restaurant,"187 Allyn Street, Hartford",ChIJVc9hWGNT5okRZ2iH28qgms0,1018890.9480400889,840788.897746614
Bin 228,restaurant,"228 Pearl Street, Hartford",ChIJxX-vWGRT5okR6nSNCCJocjo,1019772.477304122,840068.99282540055
Burger King,restaurant,"811 Main Street, Hartford",ChIJ8Ss8RntT5okRILbmHCSSpJs,1020879.1086473784,839993.8977394763
Hosmer Caf√©,restaurant,"Basement of Hosmer Hall, 65 Elizabeth Street, Hartford",ChIJSeKQZlNT5okRqnJ3vIjmh9A,1011477.1415133147,842148.5276912212
Wood-n-Tap- Hartford,restaurant,"99 Sisson Avenue, Hartford",ChIJVVUJAEtT5okRrF0nRDzl1pY,1011797.601332556,837855.8217224034
KFC,restaurant,"779 Albany Avenue, Hartford",ChIJ2XaLfKFU5okRSB3e7OXaPmg,1016432.4488366311,844700.9204456061
Dunkin',restaurant,"255 Farmington Avenue, Hartford",ChIJhyfknlpT5okRFZUAqoQnRSs,1014535.2067661063,840347.3329007801
Wingstop,restaurant,"550 Farmington Avenue, Hartford",ChIJiQSCxrKs54kRyapcmQJDGig,1010742.8482334393,840022.5549528574
Piggy's Cafe,restaurant,"69 Hawthorn Street, Hartford",ChIJq_ALc0VT5okRYZyFY7yiAxk,1014514.3989499975,839094.9676307325
Stella's and Mazie's,restaurant,"461 Capitol Avenue, Hartford",ChIJ2cbTcUNT5okRDOFcB-MrIIY,1016085.6610553834,838915.7941780011
Backstage Cafe,restaurant,"Westbourne Parkway, Hartford",ChIJJdqJcK5U5okRsb1vi5AgXbU,1012749.6328231796,846671.3367355408
Subway,restaurant,"53 Albany Avenue, Hartford",ChIJd4VzuGJT5okRLt79KRM1nmw,1019503.1771398925,842819.0427329727
Mynx Cabaret Hartford,restaurant,"145 West Service Road, Hartford",ChIJdbAOD15U5okRPJtn-ystY84,1025262.0395037989,848691.7694569513
ON20,restaurant,"400 Columbus Boulevard, Hartford",ChIJmX6H5XtT5okRyMPxqQmWLr4,1022051.7750518831,840056.1839023395
The savvy boutique cafe and bookstore,restaurant,"818 Windsor Street, Hartford",ChIJ1SlQpIxU5okR_78RsoDepes,1022244.643911842,848588.8831117399
Dunn's River Jamaican Restaurant,restaurant,"2996 Main Street, Hartford",ChIJJy1dS_RU5okRwqQmsogjG6c,1022880.5779169195,849738.0725022806
Froyo World,restaurant,"250 Columbus Boulevard, Hartford",ChIJ4Vvs0HtT5okR3vHumFEFPUQ,1022145.6054925197,839404.9157830402
Larry's Place Restaurant & Lounge,restaurant,"3019 Main Street, Hartford",ChIJI6wbUPRU5okRRTgmwtEUN1Y,1022885.4331540084,849905.2628072408
Dunkin',restaurant,"20 Central Row, Hartford",ChIJjT1g5G9T5okR8JYf3sfi9so,1021185.6788707761,839643.7325718363
The Hawk's Nest,restaurant,"200 Bloomfield Avenue, West Hartford",ChIJZ3Ydezar54kRyJvVPetFk9M,1009195.9753435679,852307.5280494272
Subway,restaurant,"Konover Campus Center, 200 Bloomfield Ave, Village Market, West Hartford",ChIJLVz9UzSr54kRnezgdawpGIY,1010062.8453151104,852414.7238412645
Channer's Sunshine Restaurant,restaurant,"1037 Albany Avenue, Hartford",ChIJMVHoO6RU5okRR0WHjyNBbZI,1015023.1285081328,845467.179857703
South Whitney Pizza,restaurant,"264 South Whitney Street, Hartford",ChIJ42lHO7Os54kR2z7hVzvbB-o,1010725.3480282093,839751.6922355132
Mo's Midtown Restaurant,restaurant,"25 Whitney Street, Hartford",ChIJAxnz6rKs54kRtkyQG4q0bWM,1010464.450686821,840198.6511394625
Wei Mei Chinese Restaurant,restaurant,"651 Blue Hills Avenue #1208, Hartford",ChIJgRF20dpU5okRqvVEFQLbw5w,1014777.3433315657,854012.4719330714
Milagro's Spanish Restaurant,restaurant,"515 Albany Avenue, Hartford",ChIJoSzwZ59U5okR4_Z260TCS3U,1017605.2332474748,844087.869178949
Vaughan's Public House,restaurant,"59 Pratt Street, Hartford",ChIJF7xGVWNT5okRJh73ZlBRinA,1020640.0540346539,840420.9404835426
Red Star Chinese Restaurant,restaurant,"2393 Main Street, Hartford",ChIJkRvh-41U5okRRmHjlFo8IRc,1020770.1217044223,847546.1998606037
Subway,restaurant,"3281 North Main Street Suite 4, Hartford",ChIJqWcvPPZU5okReitmMJtqw1E,1023551.111509754,850883.597732691
Destiny Awaits Restaurant & Catering,restaurant,"3343 Main Street, Hartford",ChIJx2kILfZU5okRSxC-9Yo2yuA,1023645.1778198614,851164.6791252288
Dunkin',restaurant,"Yard Goats Baseball, 1214 Main Street, Hartford",ChIJcXnfyWJT5okRVZTfV959qRs,1020589.339117728,841764.6403250613
McDonald's,restaurant,"98 Weston Street, Hartford",ChIJ9zamgYpU5okRyDVl_wUlN4A,1023950.3643274428,847727.2981748531
McDonald's,restaurant,"1303 Albany Avenue, Hartford",ChIJY-b3fK9U5okRa0Qt-MPxsL0,1014102.0368846763,845744.3171989435
Popeyes Louisiana Kitchen,restaurant,"964 Albany Avenue, Hartford",ChIJ1V8pD6RU5okRkeGa60N8ZWc,1015694.9866671384,845338.7671525289
Jahm Ske's,restaurant,"1291 Albany Avenue, Hartford",ChIJcd1xfa9U5okRWjXfx_jCl9I,1014262.4587710738,845392.4068481519
Golden Krust Caribbean Restaurant,restaurant,"1170 Albany Avenue, Hartford",ChIJwSSPuaVU5okRQlFUym0NRVU,1014752.6194239601,845772.0451889709
Woodland Pizza Restaurant,restaurant,"150 Woodland Street, Hartford",ChIJVbBuG6hU5okR5mY274_WqO4,1014127.5361546773,843882.2680283156
Scotts' Jamaican Bakery - Albany Ave Branch,restaurant,"1344 Albany Avenue, Hartford",ChIJRcHAe69U5okRMyx9pWDcC9A,1013951.3583603074,846139.2332763306
Lok Chung Chinese Restaurant,restaurant,"1291 Albany Avenue #3, Hartford",ChIJcd1xfa9U5okRHA1BL2P1M20,1014168.5526535439,845436.9158779779
Mr Pizza house,restaurant,"671 Blue Hills Avenue, Hartford",ChIJtbLq3NpU5okREOY6Ty57OWY,1014744.8329221366,854291.2893303799
Island Vibes Restaurant,restaurant,"675 Blue Hills Avenue, Hartford",ChIJU-FA3dpU5okRpwuo2FvhcLI,1014741.7093897236,854359.4663517483
Lok Hing Chinese Restaurant,restaurant,"635 Albany Avenue, Hartford",ChIJS3xH66FU5okRG-Ou8tNA0KM,1017054.9108427353,844311.8596301707
Cozy Spot,restaurant,"77 Barbour Street, Hartford",ChIJzwy4XpFU5okReoTQYdhz6WQ,1019307.6471016599,847651.4330666029
The Tavern at Keney Park,restaurant,"171 Windsor Avenue, Windsor",ChIJG7Ta8FRU5okROzLXGXoPqws,1024872.4740063326,854789.04638946
Jerk Pit Cafe & Catering Next Generation,restaurant,"2940 Main Street, Hartford",ChIJv6TAW_RU5okR13ZnGEm6pJY,1022601.2978717637,849522.7720216938
Burger & Pizza Land,restaurant,"295 Barbour Street, Hartford",ChIJ21gK3-xU5okRSfVvQ6OczSI,1019787.3951278864,849788.474080509
Star Chinese Restaurant,restaurant,"2995 Main Street #1, Hartford",ChIJW8uYXvRU5okRe2wbMki8Yso,1022657.3038069662,849841.4185384037
Scotts' Jamaican Bakery - Main Street Branch,restaurant,"3381 Main Street, Hartford",ChIJi7Gw0fdU5okRmHvhzf8M-UM,1023689.194665925,851375.3817736002
